sat26018
1 26018U 91068AD  20046.38779233 -.00000005  00000-0 -10515-3 0  9997
2 26018  82.7109 264.5039 0018213 213.2036 321.8534 12.45343935294085
